CALSPHERE 1             
1 00900U 64063C   24101.89459420  .00000827  00000+0  85702-3 0  9998
2 00900  90.2025  53.9363 0025031 178.0653 242.4567 13.74893835961781
CALSPHERE 2             
1 00902U 64063E   24101.86877043  .00000059  00000+0  75193-4 0  9993
2 00902  90.2171  57.4932 0019431  27.7654  30.6254 13.52789381748468
LCS 1                   
1 01361U 65034C   24102.15231137  .00000015  00000+0  86681-3 0  9998
2 01361  32.1409 269.4663 0005084 148.7668 211.3132  9.89305068131292
TEMPSAT 1               
1 01512U 65065E   24101.86870288  .00000048  00000+0  80074-4 0  9990
2 01512  89.9550 214.3577 0068582 328.8981 157.9497 13.33508895853782
CALSPHERE 4A            
1 01520U 65065H   24101.93529656  .00000116  00000+0  20588-3 0  9996
2 01520  89.9464 128.4031 0068828 191.1206 244.6372 13.36047841856241
OPS 5712 (P/L 160)      
1 02826U 67053A   24101.87427461  .00004741  00000+0  10428-2 0  9998
2 02826  69.9247 164.9619 0003417 189.2196 170.8880 14.58065692949149
OPS 5712 (P/L 153)      
1 02874U 67053H   24101.90892808  .00000063  00000+0  83859-4 0  9999
2 02874  69.9763  23.9022 0006731 173.4937 186.6257 13.96567531895454
SURCAL 150B             
1 02909U 67053J   24101.86115018  .00011962  00000+0  16629-2 0  9993
2 02909  69.9393 115.6918 0004702 243.5688 116.4978 14.78000911961071
RIGIDSPHERE 2 (LCS 4)   
1 05398U 71067E   24102.20117260  .00000803  00000+0  26715-3 0  9998
2 05398  87.6322 199.6529 0061038 355.8401   4.2281 14.35591576759666
COSMOS 2493 (SKRL-756 1)
1 39490U 13078A   24102.50275587  .00002699  00000+0  25290-3 0  9998
2 39490  82.4147 315.9787 0016631  49.9324 310.3352 14.93600542558987
COSMOS 2494 (SKRL-756 2)
1 39491U 13078B   24102.50813359  .00003370  00000+0  30182-3 0  9997
2 39491  82.4137 308.1542 0020063  20.7100 339.4930 14.95390377559409
